NORAD_CAT_ID,OBJECT_NAME,OBJECT_TYPE,EPOCH,MEAN_MOTION,ECCENTRICITY,INCLINATION,RA_OF_ASC_NODE,ARG_OF_PERICENTER,MEAN_ANOMALY,BSTAR,MEAN_MOTION_DOT,MEAN_MOTION_DDOT,TLE_LINE0,TLE_LINE1,TLE_LINE2,SEMIMAJOR_AXIS,PERIOD,APOGEE,PERIGEE,DECAYED
52452.0,STARLINK-3909,PAYLOAD,2024-03-14 09:27:36,15.08841444,0.000167,53.2177,84.9722,88.8918,271.2266,4.6487e-05,4.52e-06,0.0,0 STARLINK-3909,1 52452U 22049B   24074.39416869  .00000452  00000-0  46487-4 0  9992,2 52452  53.2177  84.9722 0001670  88.8918 271.2266 15.08841444102618,6917.876,95.437,540.896,538.586,0.0
52452.0,STARLINK-3909,PAYLOAD,2024-03-15 09:18:23,15.08838358,0.0001661,53.218,80.512,92.052,268.0662,-3.8402e-06,-3.49e-06,0.0,0 STARLINK-3909,1 52452U 22049B   24075.38777506 -.00000349  00000-0 -38402-5 0  9996,2 52452  53.2180  80.5120 0001661  92.0520 268.0662 15.08838358102920,6917.885,95.438,540.899,538.601,0.0
52452.0,STARLINK-3909,PAYLOAD,2024-03-16 04:23:00,15.08846039,0.0001714,53.2178,76.943,94.0189,266.0999,0.00014778,2.065e-05,0.0,0 STARLINK-3909,1 52452U 22049B   24076.18264615  .00002065  00000-0  14778-3 0  9990,2 52452  53.2178  76.9430 0001714  94.0189 266.0999 15.08846039103042,6917.862,95.437,540.913,538.541,0.0
52452.0,STARLINK-3909,PAYLOAD,2024-03-16 09:09:08,15.08867366,0.0001645,53.2178,76.0508,89.6912,270.4269,0.00029802,4.462e-05,0.0,0 STARLINK-3909,1 52452U 22049B   24076.38134817  .00004462  00000-0  29802-3 0  9999,2 52452  53.2178  76.0508 0001645  89.6912 270.4269 15.08867366103074,6917.797,95.436,540.8,538.524,0.0
52452.0,STARLINK-3909,PAYLOAD,2024-03-17 04:13:47,15.08839782,0.0002348,53.2178,72.4761,120.3043,239.8181,8.5267e-05,1.069e-05,0.0,0 STARLINK-3909,1 52452U 22049B   24077.17624832  .00001069  00000-0  85267-4 0  9996,2 52452  53.2178  72.4761 0002348 120.3043 239.8181 15.08839782103190,6917.881,95.438,541.37,538.122,0.0
52452.0,STARLINK-3909,PAYLOAD,2024-03-17 08:59:57,15.0883957,0.0001501,53.2171,71.5885,100.2646,259.8516,5.4e-05,5.72e-06,0.0,0 STARLINK-3909,1 52452U 22049B   24077.37497132  .00000572  00000-0  54000-4 0  9998,2 52452  53.2171  71.5885 0001501 100.2646 259.8516 15.08839570103061,6917.882,95.438,540.785,538.708,0.0
52452.0,STARLINK-3909,PAYLOAD,2024-03-18 05:39:58,15.08849956,0.0001614,53.2179,67.7231,89.4319,270.6859,-0.00015837,-2.808e-05,0.0,0 STARLINK-3909,1 52452U 22049B   24078.23609195 -.00002808  00000-0 -15837-3 0  9998,2 52452  53.2179  67.7231 0001614  89.4319 270.6859 15.08849956103353,6917.85,95.437,540.831,538.598,0.0
52452.0,STARLINK-3909,PAYLOAD,2024-03-19 08:41:31,15.08845874,0.0001591,53.2176,62.6663,106.0732,254.0436,0.00016349,2.315e-05,0.0,0 STARLINK-3909,1 52452U 22049B   24079.36216676  .00002315  00000-0  16349-3 0  9991,2 52452  53.2176  62.6663 0001591 106.0732 254.0436 15.08845874103523,6917.862,95.437,540.828,538.627,0.0
52452.0,STARLINK-3909,PAYLOAD,2024-03-20 05:21:31,15.08852601,0.0001678,53.2176,58.7984,108.1857,251.9318,0.00024498,3.614e-05,0.0,0 STARLINK-3909,1 52452U 22049B   24080.22328632  .00003614  00000-0  24498-3 0  9991,2 52452  53.2176  58.7984 0001678 108.1857 251.9318 15.08852601103499,6917.842,95.437,540.868,538.546,0.0
52452.0,STARLINK-3909,PAYLOAD,2024-03-20 22:50:46,15.08840007,0.0001756,53.2177,55.5277,120.1737,239.9429,3.2073e-05,2.22e-06,0.0,0 STARLINK-3909,1 52452U 22049B   24080.95193217  .00000222  00000-0  32073-4 0  9991,2 52452  53.2177  55.5277 0001756 120.1737 239.9429 15.08840007103607,6917.88,95.438,540.96,538.531,0.0
52452.0,STARLINK-3909,PAYLOAD,2024-03-21 05:12:19,15.08845123,0.0001437,53.2168,54.3425,108.7763,251.3385,1.4223e-05,-6.2e-07,0.0,0 STARLINK-3909,1 52452U 22049B   24081.21688931 -.00000062  00000-0  14223-4 0  9993,2 52452  53.2168  54.3425 0001437 108.7763 251.3385 15.08845123103801,6917.865,95.437,540.724,538.736,0.0
52452.0,STARLINK-3909,PAYLOAD,2024-03-21 08:23:05,15.08848198,0.0001438,53.2167,53.7462,106.0869,254.0281,8.2312e-05,1.023e-05,0.0,0 STARLINK-3909,1 52452U 22049B   24081.34936772  .00001023  00000-0  82312-4 0  9997,2 52452  53.2167  53.7462 0001438 106.0869 254.0281 15.08848198103667,6917.855,95.437,540.715,538.726,0.0
52452.0,STARLINK-3909,PAYLOAD,2024-03-22 08:13:52,15.08855991,0.0001498,53.2172,49.2837,96.8014,263.3149,0.00033302,5.018e-05,0.0,0 STARLINK-3909,1 52452U 22049B   24082.34296417  .00005018  00000-0  33302-3 0  9995,2 52452  53.2172  49.2837 0001498  96.8014 263.3149 15.08855991103972,6917.832,95.437,540.733,538.66,0.0
52452.0,STARLINK-3909,PAYLOAD,2024-03-23 04:53:54,15.08830551,0.0001428,53.2165,45.4143,115.9963,244.1176,-2.9404e-05,-7.56e-06,0.0,0 STARLINK-3909,1 52452U 22049B   24083.20409729 -.00000756  00000-0 -29404-4 0  9998,2 52452  53.2165  45.4143 0001428 115.9963 244.1176 15.08830551104109,6917.909,95.438,540.762,538.786,0.0
52452.0,STARLINK-3909,PAYLOAD,2024-03-23 06:29:17,15.08832214,0.0001436,53.2173,45.1215,104.473,255.6421,2.115e-05,4.9e-07,0.0,0 STARLINK-3909,1 52452U 22049B   24083.27033879  .00000049  00000-0  21150-4 0  9997,2 52452  53.2173  45.1215 0001436 104.4730 255.6421 15.08832214103959,6917.904,95.438,540.763,538.776,0.0
52452.0,STARLINK-3909,PAYLOAD,2024-03-24 04:44:40,15.08869421,0.0001531,53.2181,40.9566,99.0972,261.0194,0.0013031,0.00020528,0.0,0 STARLINK-3909,1 52452U 22049B   24084.19769058  .00020528  00000-0  13031-2 0  9995,2 52452  53.2181  40.9566 0001531  99.0972 261.0194 15.08869421104255,6917.79,95.436,540.715,538.596,0.0
52452.0,STARLINK-3909,PAYLOAD,2024-03-24 06:20:03,15.08873447,0.0001473,53.218,40.6591,107.8646,252.2507,0.0013395,0.00021114,0.0,0 STARLINK-3909,1 52452U 22049B   24084.26392799  .00021114  00000-0  13395-2 0  9992,2 52452  53.2180  40.6591 0001473 107.8646 252.2507 15.08873447104107,6917.778,95.435,540.662,538.624,0.0
52452.0,STARLINK-3909,PAYLOAD,2024-03-25 03:00:04,15.08860549,0.0001491,53.2171,36.7956,97.6309,262.4852,0.00061831,9.572e-05,0.0,0 STARLINK-3909,1 52452U 22049B   24085.12505274  .00009572  00000-0  61831-3 0  9995,2 52452  53.2171  36.7956 0001491  97.6309 262.4852 15.08860549104396,6917.818,95.436,540.714,538.651,0.0
52452.0,STARLINK-3909,PAYLOAD,2024-03-25 14:07:46,15.08837656,0.0001568,53.2163,34.7152,93.791,266.3261,9.0072e-05,1.146e-05,0.0,0 STARLINK-3909,1 52452U 22049B   24085.58873796  .00001146  00000-0  90072-4 0  9991,2 52452  53.2163  34.7152 0001568  93.7910 266.3261 15.08837656104461,6917.888,95.438,540.837,538.668,0.0
52452.0,STARLINK-3909,PAYLOAD,2024-03-26 02:50:50,15.08878628,0.0001549,53.2183,32.334,118.66,241.4548,0.0010599,0.00016638,0.0,0 STARLINK-3909,1 52452U 22049B   24086.11864136  .00016638  00000-0  10599-2 0  9995,2 52452  53.2183  32.3340 0001549 118.6600 241.4548 15.08878628104543,6917.762,95.435,540.699,538.556,0.0
52452.0,STARLINK-3909,PAYLOAD,2024-03-26 13:58:31,15.08891505,0.0001539,53.2185,30.2502,108.5558,251.5602,0.0013199,0.0002081,0.0,0 STARLINK-3909,1 52452U 22049B   24086.58231034  .00020810  00000-0  13199-2 0  9997,2 52452  53.2185  30.2502 0001539 108.5558 251.5602 15.08891505104453,6917.723,95.434,540.653,538.523,0.0
52452.0,STARLINK-3909,PAYLOAD,2024-03-27 02:41:38,15.08825966,0.0001643,53.2194,27.8757,99.6949,260.4229,-0.00052646,-8.654e-05,0.0,0 STARLINK-3909,1 52452U 22049B   24087.11224894 -.00008654  00000-0 -52646-3 0  9998,2 52452  53.2194  27.8757 0001643  99.6949 260.4229 15.08825966104695,6917.923,95.438,540.925,538.652,0.0
52452.0,STARLINK-3909,PAYLOAD,2024-03-28 12:04:45,15.08835526,0.0001144,53.2178,21.6298,90.0977,270.0146,9.247e-05,1.184e-05,0.0,0 STARLINK-3909,1 52452U 22049B   24088.50330282  .00001184  00000-0  92470-4 0  9990,2 52452  53.2178  21.6298 0001144  90.0977 270.0146 15.08835526104903,6917.894,95.438,540.55,538.968,0.0
52452.0,STARLINK-3909,PAYLOAD,2024-03-28 18:26:18,15.08827757,0.0001366,53.2189,20.4437,95.3131,264.8017,0.00051654,7.94e-05,0.0,0 STARLINK-3909,1 52452U 22049B   24088.76827310  .00007940  00000-0  51654-3 0  9995,2 52452  53.2189  20.4437 0001366  95.3131 264.8017 15.08827757104942,6917.918,95.438,540.728,538.838,0.0
52452.0,STARLINK-3909,PAYLOAD,2024-03-28 23:12:28,15.08835593,0.0001341,53.2187,19.5525,95.2065,264.9081,0.00057017,8.797e-05,0.0,0 STARLINK-3909,1 52452U 22049B   24088.96699175  .00008797  00000-0  57017-3 0  9993,2 52452  53.2187  19.5525 0001341  95.2065 264.9081 15.08835593104810,6917.894,95.438,540.687,538.831,0.0
52452.0,STARLINK-3909,PAYLOAD,2024-03-29 11:55:32,15.0885566,0.0001276,53.2189,17.1743,98.8953,261.2184,0.00071244,0.00011074,0.0,0 STARLINK-3909,1 52452U 22049B   24089.49690703  .00011074  00000-0  71244-3 0  9990,2 52452  53.2189  17.1743 0001276  98.8953 261.2184 15.08855660105058,6917.833,95.437,540.58,538.815,0.0
52452.0,STARLINK-3909,PAYLOAD,2024-03-29 23:03:14,15.08848818,0.0002001,53.2202,15.0951,96.5775,263.5445,0.00014777,2.065e-05,0.0,0 STARLINK-3909,1 52452U 22049B   24089.96058739  .00002065  00000-0  14777-3 0  9997,2 52452  53.2202  15.0951 0002001  96.5775 263.5445 15.08848818104967,6917.853,95.437,541.103,538.334,0.0
52452.0,STARLINK-3909,PAYLOAD,2024-03-30 02:14:00,15.08851737,0.0001244,53.2186,14.4993,97.6043,262.5091,0.00034667,5.235e-05,0.0,0 STARLINK-3909,1 52452U 22049B   24090.09306492  .00005235  00000-0  34667-3 0  9997,2 52452  53.2186  14.4993 0001244  97.6043 262.5091 15.08851737105146,6917.845,95.437,540.57,538.849,0.0
52452.0,STARLINK-3909,PAYLOAD,2024-03-30 11:46:20,15.08827218,0.0002314,53.2192,12.7139,89.9045,270.2212,-0.00037823,-6.301e-05,0.0,0 STARLINK-3909,1 52452U 22049B   24090.49051211 -.00006301  00000-0 -37823-3 0  9991,2 52452  53.2192  12.7139 0002314  89.9045 270.2212 15.08827218105206,6917.919,95.438,541.385,538.184,0.0
52452.0,STARLINK-3909,PAYLOAD,2024-03-30 22:54:02,15.08837331,0.0001655,53.2187,10.6319,89.8555,270.2627,0.00020095,2.911e-05,0.0,0 STARLINK-3909,1 52452U 22049B   24090.95419331  .00002911  00000-0  20095-3 0  9997,2 52452  53.2187  10.6319 0001655  89.8555 270.2627 15.08837331105116,6917.889,95.438,540.898,538.609,0.0
